     2.100          NAVIGATION                              RINEX VERSION / TYPE
fic2rin                                 09/23/2017 00:20:27 PGM / RUN BY / DATE
                                                            END OF HEADER
 5 17  9 22 22  0  0.0 -.284970737994D-04  .136424205266D-11  .000000000000D+00
     .140000000000D+03 -.630000000000D+02  .505306762341D-08  .217886303798D+01
    -.322051346302D-05  .521398684941D-02  .844709575176D-05  .515356134605D+04
     .511200000000D+06 -.162050127983D-06  .278414456380D+01 -.223517417908D-07
     .947428316124D+00  .211031250000D+03  .587580023958D+00 -.825141513313D-08
    -.386444668400D-09  .100000000000D+01  .196700000000D+04  .000000000000D+00
     .240000000000D+01  .000000000000D+00 -.107102096081D-07  .140000000000D+03
     .504006000000D+06  .400000000000D+01
 6 17  9 22 22  0  0.0  .399461481720D-03  .284217094304D-11  .000000000000D+00
     .116000000000D+03  .287187500000D+02  .477234164433D-08 -.574473440988D+00
     .124797224998D-05  .554233556613D-03  .446103513241D-05  .515374594116D+04
     .511200000000D+06 -.745058059692D-08  .175138629883D+01  .931322574615D-08
     .967970455261D+00  .298000000000D+03 -.113537649107D+01 -.831570352529D-08
     .302869758598D-09  .100000000000D+01  .196700000000D+04  .000000000000D+00
     .240000000000D+01  .000000000000D+00  .465661287308D-08  .116000000000D+03
     .504006000000D+06  .400000000000D+01
 7 17  9 22 22  0  0.0  .302682165056D-03 -.488853402203D-11  .000000000000D+00
     .100000000000D+03  .372187500000D+02  .478198490315D-08 -.138142174235D+01
     .190362334251D-05  .110595298465D-01  .317580997944D-05  .515371920395D+04
     .511200000000D+06  .186264514923D-06 -.136692389357D+01 -.104308128357D-06
     .960689969873D+00  .317531250000D+03 -.255677637008D+01 -.834749056363D-08
     .115719105880D-09  .100000000000D+01  .196700000000D+04  .000000000000D+00
     .240000000000D+01  .000000000000D+00 -.111758708954D-07  .100000000000D+03
     .504006000000D+06  .400000000000D+01
 8 17  9 22 22  0  0.0 -.744438730180D-04 -.136424205266D-11  .000000000000D+00
     .970000000000D+02  .406250000000D+01  .404445418204D-08  .197044061061D+01
     .255182385445D-06  .262961874250D-02  .112969428301D-04  .515369616127D+04
     .511200000000D+06  .149011611938D-07  .695924142137D+00  .316649675369D-07
     .967773164665D+00  .164906250000D+03 -.630940705167D+00 -.774496546604D-08
     .277868717205D-09  .100000000000D+01  .196700000000D+04  .000000000000D+00
     .240000000000D+01  .000000000000D+00  .558793544769D-08  .970000000000D+02
     .504006000000D+06  .400000000000D+01
 9 17  9 22 22  0  0.0  .446954742074D-03  .602540239925D-11  .000000000000D+00
     .144000000000D+03  .539375000000D+02  .450947355196D-08  .162678164578D+01
     .271387398243D-05  .815003062598D-03  .112187117338D-04  .515377940559D+04
     .511200000000D+06 -.260770320892D-07 -.244568109547D+01 -.260770320892D-07
     .953506609080D+00  .157500000000D+03  .184981482849D+01 -.798997567170D-08
     .892894335490D-10  .100000000000D+01  .196700000000D+04  .000000000000D+00
     .240000000000D+01  .000000000000D+00  .931322574615D-09  .144000000000D+03
     .504006000000D+06  .400000000000D+01
10 17  9 22 22  0  0.0  .714319758117D-04  .943600753089D-11  .000000000000D+00
     .168000000000D+03 -.606250000000D+02  .472805408529D-08 -.277377716035D+01
    -.309757888317D-05  .276757427491D-02  .845640897751D-05  .515366878319D+04
     .511200000000D+06 -.558793544769D-08  .279894585691D+01 -.186264514923D-07
     .960647330200D+00  .219031250000D+03 -.285316374849D+01 -.808819404860D-08
    -.419303179946D-09  .100000000000D+01  .196700000000D+04  .000000000000D+00
     .240000000000D+01  .000000000000D+00  .186264514923D-08  .168000000000D+03
     .504006000000D+06  .400000000000D+01
11 17  9 22 22  0  0.0 -.717177987099D-03 -.227373675443D-11  .000000000000D+00
     .930000000000D+02  .638437500000D+02  .602239371401D-08 -.135694281606D+01
     .369176268578D-05  .170713691041D-01  .681169331074D-05  .515372878456D+04
     .511200000000D+06 -.197440385818D-06  .134910591709D+01  .339001417160D-06
     .901993227318D+00  .221468750000D+03  .169770506704D+01 -.897644533355D-08
     .526807657939D-09  .100000000000D+01  .196700000000D+04  .000000000000D+00
     .240000000000D+01  .000000000000D+00 -.121071934700D-07  .349000000000D+03
     .504006000000D+06  .400000000000D+01
12 17  9 22 22  0  0.0  .371812842786D-03 -.136424205266D-11  .000000000000D+00
     .127000000000D+03 -.834375000000D+02  .379122934849D-08 -.199046730666D+01
    -.424496829510D-05  .654014479369D-02  .843591988087D-05  .515371742249D+04
     .511200000000D+06  .596046447754D-07 -.279805579414D+00 -.502914190292D-07
     .988723997763D+00  .231812500000D+03  .914707016785D+00 -.770103506474D-08
    -.426446334630D-09  .100000000000D+01  .196700000000D+04  .000000000000D+00
     .240000000000D+01  .000000000000D+00 -.125728547573D-07  .127000000000D+03
     .504006000000D+06  .400000000000D+01
13 17  9 22 22  0  0.0 -.917795114219D-04 -.568434188608D-12  .000000000000D+00
     .139000000000D+03  .745937500000D+02  .434625246743D-08 -.142219440445D+00
     .398419797421D-05  .350331491791D-02  .103507190943D-04  .515366306877D+04
     .511200000000D+06  .111758708954D-07 -.231768979877D+01  .558793544769D-08
     .969355544635D+00  .183656250000D+03  .173827289281D+01 -.801140513575D-08
     .191436545529D-09  .100000000000D+01  .196700000000D+04  .000000000000D+00
     .340000000000D+01  .000000000000D+00 -.111758708954D-07  .139000000000D+03
     .504006000000D+06  .400000000000D+01
14 17  9 22 22  0  0.0 -.843843445182D-04 -.102318153949D-11  .000000000000D+00
     .116000000000D+03  .588125000000D+02  .440804075545D-08  .113522486400D+01
     .310875475407D-05  .933580822311D-02  .116769224405D-04  .515370494461D+04
     .511200000000D+06 -.180676579475D-06 -.235794178492D+01  .409781932831D-07
     .961917328884D+00  .157468750000D+03 -.194697879128D+01 -.811462372094D-08
     .122862260563D-09  .100000000000D+01  .196700000000D+04  .000000000000D+00
     .240000000000D+01  .000000000000D+00 -.977888703346D-08  .116000000000D+03
     .504006000000D+06  .400000000000D+01
15 17  9 22 22  0  0.0 -.356043223292D-03 -.341060513165D-12  .000000000000D+00
     .860000000000D+02  .560937500000D+02  .519593071708D-08  .610644791235D+00
     .316090881824D-05  .962776737288D-02  .112876296043D-04  .515362395096D+04
     .511200000000D+06 -.745058059692D-08 -.251021897880D+01  .113621354103D-06
     .929144613826D+00  .143031250000D+03  .604432222880D+00 -.843749431265D-08
    -.539308178636D-10  .100000000000D+01  .196700000000D+04  .000000000000D+00
     .240000000000D+01  .000000000000D+00 -.107102096081D-07  .860000000000D+02
     .504006000000D+06  .400000000000D+01
16 17  9 22 22  0  0.0  .370140187442D-04  .000000000000D+00  .000000000000D+00
     .104000000000D+03 -.883437500000D+02  .380301555372D-08  .233001318368D+01
    -.464543700218D-05  .929802947212D-02  .797584652901D-05  .515376720810D+04
     .511200000000D+06 -.912696123123D-07 -.260940098002D+00 -.540167093277D-07
     .989195465539D+00  .244531250000D+03  .460988596494D+00 -.778818155188D-08
    -.471805366873D-09  .100000000000D+01  .196700000000D+04  .000000000000D+00
     .240000000000D+01  .000000000000D+00 -.107102096081D-07  .104000000000D+03
     .504006000000D+06  .400000000000D+01
17 17  9 22 22  0  0.0 -.155353453010D-03  .261479726760D-11  .000000000000D+00
     .200000000000D+01  .166250000000D+02  .376265672976D-08  .145240943546D+01
     .838190317154D-06  .118660082808D-01  .112298876047D-04  .515369462967D+04
     .511200000000D+06 -.229105353355D-06  .755068031454D+00 -.223517417908D-06
     .981028813136D+00  .173281250000D+03 -.184397599474D+01 -.777139513837D-08
     .359300680601D-09  .100000000000D+01  .196700000000D+04  .000000000000D+00
     .240000000000D+01  .000000000000D+00 -.111758708954D-07  .258000000000D+03
     .504006000000D+06  .400000000000D+01
18 17  9 22 22  0  0.0  .630090944469D-03  .795807864051D-12  .000000000000D+00
     .240000000000D+02 -.692500000000D+02  .544201239595D-08  .292723233536D+01
    -.360235571861D-05  .181297296658D-01  .738538801670D-05  .515363055229D+04
     .511200000000D+06  .251457095146D-06  .275258310688D+01 -.184401869774D-06
     .926257442592D+00  .215406250000D+03 -.178091393682D+01 -.824712924032D-08
    -.478948521557D-09  .100000000000D+01  .196700000000D+04  .000000000000D+00
     .240000000000D+01  .000000000000D+00 -.111758708954D-07  .280000000000D+03
     .504006000000D+06  .400000000000D+01
19 17  9 22 22  0  0.0 -.484899152070D-03  .193267624127D-11  .000000000000D+00
     .500000000000D+01  .370000000000D+02  .386123226439D-08 -.184657356964D+01
     .189431011677D-05  .100124955643D-01  .106263905764D-04  .515368264389D+04
     .511200000000D+06  .163912773132D-06  .802612585224D+00 -.465661287308D-07
     .978335155243D+00  .177343750000D+03  .107204934800D+01 -.759924511049D-08
     .451447376024D-09  .100000000000D+01  .196700000000D+04  .000000000000D+00
     .340000000000D+01  .000000000000D+00 -.153668224812D-07  .261000000000D+03
     .504006000000D+06  .400000000000D+01
20 17  9 22 22  0  0.0  .487451441586D-03  .125055521494D-11  .000000000000D+00
     .137000000000D+03 -.619687500000D+02  .559737601032D-08  .468465111441D+00
    -.316090881824D-05  .455534085631D-02  .754557549953D-05  .515373706436D+04
     .511200000000D+06 -.540167093277D-07  .270142025053D+01  .391155481339D-07
     .927605632784D+00  .217968750000D+03  .166751228409D+01 -.868679041112D-08
    -.407516974718D-09  .100000000000D+01  .196700000000D+04  .000000000000D+00
     .240000000000D+01  .000000000000D+00 -.838190317154D-08  .137000000000D+03
     .504006000000D+06  .400000000000D+01
